# From MPC105239
C/2017 E4 (Lovejoy),h,04/23.5144/2017,88.1357,223.1312,87.0801,1.001503,0.491830,2000,17.0,4.0
# From MPC105239
C/2017 E5 (Lemmon),e,122.6595,206.2735,306.8701,384.7553,0.0001306,0.99535401,0.0000,06/10.5515/2016,2000,g 13.0,4.0
# From MPC111769
C/2017 F1 (Lemmon),h,11/30.6679/2017,146.4725,158.7767,64.7945,1.004372,4.497902,2000,10.5,4.0
# From MPC114598
C/2017 F2 (PANSTARRS),h,11/27.8300/2017,42.5087,38.6695,135.0459,1.004758,6.931257,2000,7.5,4.0
# From MPC104794
P/2017 G1 (PANSTARRS),e,4.7748,249.6285,224.5849,7.294504,0.0500277,0.65346735,67.0382,12/30.0/2019,2000,g 13.5,4.0
# From MPC108595
P/2017 G2 (PANSTARRS),e,47.9538,79.7999,105.6232,8.082847,0.0428901,0.64877763,39.9120,12/30.0/2019,2000,g 13.0,4.0
# From MPC109144
C/2017 G3 (PANSTARRS),e,159.0587,279.4802,73.1504,304.5529,0.0001854,0.99149042,0.0000,04/15.3651/2017,2000,g 14.0,4.0
# From MPC115882
C/2017 K1 (PANSTARRS),h,03/16.7436/2018,154.0081,225.6469,4.3492,1.001110,7.288381,2000,7.0,4.0
# From MPC118840
C/2017 K2 (PANSTARRS),h,12/20.1269/2022,87.5418,88.2694,236.1402,1.000395,1.800927,2000,1.5,4.0
# From MPC106346
P/2017 K3 (Gasparovic),e,4.2754,354.3050,253.4075,5.579202,0.0747904,0.58097527,70.4723,12/30.0/2019,2000,g 14.5,4.0
# From MPC114598
C/2017 K4 (ATLAS),e,16.6795,298.8733,15.1824,28.38313,0.0065180,0.90666723,4.6977,12/30.0/2019,2000,g 10.0,4.0
# From MPC118093
C/2017 K5 (PANSTARRS),h,03/23.6189/2020,82.2636,102.3735,171.7994,1.005843,7.678802,2000,5.0,4.0
# From MPC114599
C/2017 K6 (Jacques),e,57.2555,85.0547,303.7841,1064,0.0000284,0.99811973,0.0000,01/03.1715/2018,2000,g 11.0,4.0
# From MPC110083
C/2017 M3 (PANSTARRS),e,77.5239,7.0027,110.3633,168.3223,0.0004513,0.97232427,0.0000,04/28.2569/2017,2000,g 10.5,4.0
# From MPC118093
C/2017 M4 (ATLAS),h,01/17.8776/2019,105.6439,65.8637,167.5588,1.001233,3.251366,2000,6.0,4.0
# From MPC118841
C/2017 M5 (TOTAS),h,06/03.6282/2018,15.8829,216.2719,92.7109,1.004893,5.990969,2000,6.5,4.0
# From MPC114599
C/2017 O1 (ASASSN),e,39.8675,25.7870,20.8666,362.4791,0.0001428,0.99587008,0.0000,10/14.7122/2017,2000,g 11.0,4.0
# From MPC114599
P/2017 P1 (PANSTARRS),e,7.6997,221.4006,122.1618,7.885342,0.0445116,0.31011853,24.9465,12/30.0/2019,2000,g 10.0,4.0
# From MPC114599
C/2017 P2 (PANSTARRS),e,50.0645,165.5191,132.2962,1810,0.0000128,0.99863892,0.0000,12/06.6709/2017,2000,g 10.0,4.0
# From MPC114599
P/2017 R1 (PANSTARRS),e,2.5734,143.6264,178.4973,4.134878,0.1172223,0.19548300,116.6211,12/30.0/2019,2000,g 13.5,4.0
# From MPC108595
C/2017 S2 (PANSTARRS),e,12.6813,62.4208,305.9346,20.49442,0.0106231,0.82373918,9.0576,12/30.0/2019,2000,g 13.0,4.0
# From MPC114599
C/2017 S3 (PANSTARRS),h,08/15.9578/2018,99.0770,171.0928,255.8383,1.000048,0.208450,2000,11.0,4.0
# From MPC114599
P/2017 S5 (ATLAS),e,11.8503,252.3886,99.8354,3.169417,0.1746767,0.31365537,154.5697,12/30.0/2019,2000,g 14.0,4.0
# From MPC109591
C/2017 S6 (Catalina),h,02/26.7672/2018,152.8679,131.0519,134.7966,1.000811,1.541648,2000,12.5,4.0
# From MPC114599
C/2017 S7 (Lemmon),h,05/26.3149/2017,124.2337,262.7941,187.6491,1.001580,7.610516,2000,7.0,4.0
# From MPC114599
P/2017 S8 (PANSTARRS),e,29.8312,191.7583,254.6827,2.777809,0.2128876,0.39292253,149.1473,12/30.0/2019,2000,g 16.0,4.0
# From MPC107050
P/2017 S9 (PANSTARRS),e,14.1430,146.2156,237.7503,3.154423,0.1759237,0.30481313,156.5275,12/30.0/2019,2000,g 17.0,4.0
# From MPC114600
C/2017 T1 (Heinze),h,02/21.5459/2018,96.8372,102.3179,96.8992,1.000037,0.580922,2000,14.5,4.0
# From MPC118841
C/2017 T2 (PANSTARRS),e,57.2312,64.3786,92.9937,4985,0.0000028,0.99967603,0.0000,05/04.9496/2020,2000,g  5.0,4.0
# From MPC114600
C/2017 T3 (ATLAS),e,88.0299,230.0671,246.8374,1597,0.0000154,0.99948363,0.0000,07/19.1169/2018,2000,g 10.0,4.0
# From MPC115882
P/2017 TW13 (Lemmon),e,44.8452,322.2817,120.0711,7.152052,0.0515298,0.70942211,28.7080,12/30.0/2019,2000,g 15.0,2.0
# From MPC114600
C/2017 U2 (Fuls),e,95.3972,149.7139,147.7566,5468,0.0000024,0.99877431,0.0000,08/28.2877/2017,2000,g  9.0,4.0
# From MPC114600
P/2017 U3 (PANSTARRS),e,15.9110,165.1127,297.2283,4.932967,0.0899584,0.09905900,22.8830,12/30.0/2019,2000,g 11.0,4.0
# From MPC114600
C/2017 U4 (PANSTARRS),h,09/24.4883/2018,158.2238,245.9508,159.0988,1.003673,7.723278,2000,7.0,4.0
# From MPC114600
C/2017 U5 (PANSTARRS),e,18.9643,163.0893,262.0873,16.88452,0.0142060,0.74388003,10.5331,12/30.0/2019,2000,g 12.0,4.0
# From MPC118841
A/2017 U7,h,09/11.6795/2019,142.6353,276.2324,326.0656,1.001480,6.417412,2000,8.3,2.0
# From MPC114600
C/2017 W2 (Leonard),e,98.1979,312.8303,169.1266,13.69209,0.0194536,0.71106555,15.3344,12/30.0/2019,2000,g 11.0,4.0
# From MPC114601
P/2017 W3 (Gibbs),e,18.2098,210.5341,327.2950,7.835576,0.0449363,0.50883627,30.0600,12/30.0/2019,2000,g 10.5,4.0
# From MPC115883
C/2017 X1 (PANSTARRS),e,31.3078,251.1284,283.2462,31.48930,0.0055778,0.85182754,3.1379,12/30.0/2019,2000,g 10.0,4.0
# From MPC117069
C/2017 Y1 (PANSTARRS),e,55.2614,307.5226,134.3850,2120,0.0000101,0.99824707,0.0000,08/31.2047/2017,2000,g 11.5,4.0
# From MPC118841
C/2017 Y2 (PANSTARRS),h,11/04.4565/2020,128.4307,65.9708,147.8293,1.000224,4.632530,2000,15.0,4.0
# From MPC111770
P/2017 Y3 (Leonard),e,27.5739,153.8646,67.5621,9.853000,0.0318677,0.87042535,21.8892,12/30.0/2019,2000,g 16.5,4.0
# From MPC114601
C/2018 A1 (PANSTARRS),e,53.5843,336.6301,96.3376,25.14447,0.0078170,0.90383002,6.2592,12/30.0/2019,2000,g 12.5,4.0
# From MPC118841
C/2018 A3 (ATLAS),e,139.5571,194.2900,86.4203,506.9802,0.0000863,0.99353740,0.0000,01/12.8087/2019,2000,g  8.5,4.0
# From MPC114601
C/2018 A4 (PANSTARRS),e,3.1481,97.6349,356.1012,12.23181,0.0230392,0.80360859,13.6013,12/30.0/2019,2000,g 14.0,4.0
# From MPC109147
P/2018 A5 (PANSTARRS),e,23.5778,87.8310,359.6407,5.640083,0.0735827,0.52232524,60.8944,12/30.0/2019,2000,g 15.0,4.0
# From MPC118841
C/2018 A6 (Gibbs),e,76.9550,340.3860,264.5373,15.35233,0.0163848,0.80342693,2.7641,12/30.0/2019,2000,g  9.0,4.0
# From MPC118841
C/2018 B1 (Lemmon),h,03/30.0229/2018,162.4214,133.1865,68.3235,1.002112,5.115556,2000,9.0,4.0
# From MPC114601
P/2018 C1 (Lemmon-Read),e,5.1410,270.3849,235.1614,5.633031,0.0737209,0.53609238,49.4196,12/30.0/2019,2000,g 13.5,4.0
# From MPC114601
C/2018 C2 (Lemmon),h,06/02.0614/2018,34.4583,91.1390,134.1104,1.001125,1.956538,2000,13.0,4.0
# From MPC118841
C/2018 DO4 (Lemmon),e,160.4743,251.1323,175.9663,25.82553,0.0075098,0.90683934,1.0034,12/30.0/2019,2000,g 11.0,4.0
# From MPC114602
C/2018 E1 (ATLAS),e,72.4991,146.8466,299.4520,54.12205,0.0024754,0.95002356,1.5390,12/30.0/2019,2000,g 10.5,4.0
# From MPC114602
C/2018 E2 (Barros),e,97.7364,67.2011,277.4844,3276,0.0000053,0.99880291,0.0000,12/23.8785/2017,2000,g 10.5,4.0
# From MPC114602
C/2018 EN4 (NEOWISE),e,81.5779,136.1574,35.0123,18.34119,0.0125477,0.92102500,7.1567,12/30.0/2019,2000,g 15.0,4.0
# From MPC114602
C/2018 EF9 (Lemmon),e,84.6718,172.5777,72.6214,608.7802,0.0000656,0.99744256,0.0000,05/23.0797/2018,2000,g 18.0,2.0
# From MPC115883
C/2018 F1 (Grauer),e,46.0739,177.2775,71.6381,306.4559,0.0001837,0.99023244,0.0000,12/14.0507/2018,2000,g 11.5,4.0
# From MPC110084
C/2018 F3 (Johnson),p,08/15.2314/2017,105.5348,293.0113,2.483172,173.0311,2000,13.0,4.0
# From MPC118841
C/2018 F4 (PANSTARRS),h,12/04.0994/2019,78.0983,26.5075,263.2134,1.001472,3.439818,2000,11.9,2.0
# From MPC114602
P/2018 H2 (PANSTARRS),e,7.3884,68.4428,120.0539,4.398124,0.1068570,0.53984756,75.4368,12/30.0/2019,2000,g 16.6,2.0
# From MPC114602
C/2018 K1 (Weiland),e,164.1960,260.0124,324.9884,29.83112,0.0060492,0.93700422,3.8245,12/30.0/2019,2000,g 14.9,4.0
# From MPC118094
C/2018 KJ3 (Lemmon),e,136.7093,91.5943,217.6267,747.4165,0.0000482,0.99514507,0.0000,09/09.5070/2019,2000,g 12.2,2.0
# From MPC114602
P/2018 L1 (PANSTARRS),e,10.5947,268.6265,17.9253,3.648777,0.1414110,0.48305231,58.3203,12/30.0/2019,2000,g 15.0,4.0
# From MPC118841
C/2018 L2 (ATLAS),e,67.4186,243.0210,56.2483,250.5374,0.0002485,0.99316664,0.0000,12/02.6189/2018,2000,g 10.0,4.0
# From MPC114603
P/2018 L4 (PANSTARRS),e,26.6233,145.1775,140.4886,4.937129,0.0898447,0.66032904,46.3692,12/30.0/2019,2000,g 17.5,4.0
# From MPC114603
P/2018 L5 (Leonard),e,2.2088,219.1559,93.7052,3.626970,0.1426882,0.36482347,86.2210,12/30.0/2019,2000,g 14.5,4.0
# From MPC117070
C/2018 M1 (Catalina),e,37.2681,339.4399,14.1417,21.29464,0.0100299,0.93881137,5.3953,12/30.0/2019,2000,g 15.5,4.0
# From MPC112393
C/2018 N1 (NEOWISE),e,159.4447,292.4450,354.5695,331.3345,0.0001634,0.99605294,0.0000,08/01.9311/2018,2000,g 15.5,4.0
# From MPC118841
C/2018 N2 (ASASSN),h,11/10.9631/2019,77.5309,25.2586,24.3965,1.000167,3.124640,2000,6.0,4.0
# From MPC114603
C/2018 O1 (ATLAS),e,154.0427,87.6238,162.5110,27.77281,0.0067340,0.94388056,3.2692,12/30.0/2019,2000,g 17.0,4.0
# From MPC114603
P/2018 P3 (PANSTARRS),e,8.9084,59.2048,305.8714,3.007049,0.1890137,0.41606903,84.3975,12/30.0/2019,2000,g 14.5,4.0
# From MPC114603
P/2018 P4 (PANSTARRS),e,23.1071,353.0978,8.1436,6.665150,0.0572782,0.44994681,23.9142,12/30.0/2019,2000,g 12.0,4.0
# From MPC118094
C/2018 P5 (PANSTARRS),e,7.2558,216.2453,131.6583,12.76677,0.0216064,0.64156242,6.6231,12/30.0/2019,2000,g 11.0,4.0
# From MPC118841
C/2018 R3 (Lemmon),e,69.7182,324.6257,112.8730,1943,0.0000115,0.99933581,0.0000,06/07.1962/2019,2000,g  9.5,4.0
# From MPC112393
C/2018 R4 (Fuls),e,11.6833,298.4416,345.2086,314.3192,0.0001769,0.99455736,0.0000,03/03.6777/2018,2000,g 14.0,4.0
# From MPC114603
C/2018 R5 (Lemmon),e,103.7502,171.1394,178.0263,22.82080,0.0090408,0.84130442,3.2002,12/30.0/2019,2000,g 11.5,4.0
# From MPC118842
C/2018 U1 (Lemmon),h,11/02.7567/2021,108.3018,75.4767,180.4001,1.000371,4.995041,2000,5.0,4.0
# From MPC114604
C/2018 V1 (Machholz-Fujikawa-Iwamoto),h,12/03.5290/2018,144.0473,128.8605,88.8435,1.000487,0.386124,2000,12.0,4.0
# From MPC115884
C/2018 V2 (ATLAS),e,159.1125,356.7985,318.6888,25.44926,0.0076770,0.90272559,3.0556,12/30.0/2019,2000,g 15.0,4.0
# From MPC114604
P/2018 VN2 (Leonard),e,18.2471,226.5448,138.7288,4.065315,0.1202438,0.47808086,68.8600,12/30.0/2019,2000,g 15.0,4.0
